{"type": "FeatureCollection", "features": [ {"type": "Feature", "properties": {"norad_id": 36402, "name": "COSMOS 2460 (732)", "group": "gnss", "lat": -3.445166257520159, "lon": -40.5252957760182, "alt_km": 19130.112481375065, "timestamp": "2025-12-04T09:47:37.763855+00:00", "meta": {"OBJECT_NAME": "COSMOS 2460 (732)", "OBJECT_ID": "2010-007C", "EPOCH": "2025-12-01T05:49:09.827040", "MEAN_MOTION": 2.13106053, "ECCENTRICITY": 0.00028009, "INCLINATION": 65.536, "RA_OF_ASC_NODE": 321.162, "ARG_OF_PERICENTER": 269.9918, "MEAN_ANOMALY": 177.6167, "EPHEMERIS_TYPE": 0, "CLASSIFICATION_TYPE": "U", "NORAD_CAT_ID": 36402, "ELEMENT_SET_NO": 999, "REV_AT_EPOCH": 12251, "BSTAR": 0, "MEAN_MOTION_DOT": -2.6e-07, "MEAN_MOTION_DDOT": 0}, "tle": {"line1": "1 36402U 10007C   25335.24247485 -.00000026  00000+0  00000+0 0  9994", "line2": "2 36402  65.5360 321.1620 0002800 269.9918 177.6167  2.13106053122518"}}, "geometry": {"type": "Point", "coordinates": [-40.5252957760182, -3.445166257520159]}}, {"type": "Feature", "properties": {"norad_id": 36585, "name": "GPS BIIF-1  (PRN 25)", "group": "gnss", "lat": -50.87158119387235, "lon": 154.40868400125814, "alt_km": 20433.956008341996, "timestamp": "2025-12-04T09:47:37.763867+00:00", "meta": {"OBJECT_NAME": "GPS BIIF-1  (PRN 25)", "OBJECT_ID": "2010-022A", "EPOCH": "2025-12-03T06:19:07.093056", "MEAN_MOTION": 2.00552613, "ECCENTRICITY": 0.0125712, "INCLINATION": 54.3021, "RA_OF_ASC_NODE": 216.4561, "ARG_OF_PERICENTER": 64.9696, "MEAN_ANOMALY": 116.7502, "EPHEMERIS_TYPE": 0, "CLASSIFICATION_TYPE": "U", "NORAD_CAT_ID": 36585, "ELEMENT_SET_NO": 999, "REV_AT_EPOCH": 11366, "BSTAR": 0, "MEAN_MOTION_DOT": 7.1e-07, "MEAN_MOTION_DDOT": 0}, "tle": {"line1": "1 36585U 10022A   25337.26327654  .00000071  00000+0  00000+0 0  9993", "line2": "2 36585  54.3021 216.4561 0125712  64.9696 116.7502  2.00552613113660"}}, "geometry": {"type": "Point", "coordinates": [154.40868400125814, -50.87158119387235]}}, {"type": "Feature", "properties": {"norad_id": 36828, "name": "BEIDOU-2 IGSO-1 (C06)", "group": "gnss", "lat": 13.765368055267052, "lon": -25.449636875359264, "alt_km": 35652.21266766147, "timestamp": "2025-12-04T09:47:37.763879+00:00", "meta": {"OBJECT_NAME": "BEIDOU-2 IGSO-1 (C06)", "OBJECT_ID": "2010-036A", "EPOCH": "2025-12-03T10:50:44.943648", "MEAN_MOTION": 1.00278626, "ECCENTRICITY": 0.00512649, "INCLINATION": 54.2837, "RA_OF_ASC_NODE": 164.7326, "ARG_OF_PERICENTER": 215.7728, "MEAN_ANOMALY": 322.4753, "EPHEMERIS_TYPE": 0, "CLASSIFICATION_TYPE": "U", "NORAD_CAT_ID": 36828, "ELEMENT_SET_NO": 999, "REV_AT_EPOCH": 5613, "BSTAR": 0, "MEAN_MOTION_DOT": -2.4e-07, "MEAN_MOTION_DDOT": 0}, "tle": {"line1": "1 36828U 10036A   25337.45190907 -.00000024  00000+0  00000+0 0  9997", "line2": "2 36828  54.2837 164.7326 0051264 215.7728 322.4753  1.00278626 56130"}}, "geometry": {"type": "Point", "coordinates": [-25.449636875359264, 13.765368055267052]}}, {"type": "Feature", "properties": {"norad_id": 37210, "name": "BEIDOU-2 G4 (C04)", "group": "gnss", "lat": -2.380084692104664, "lon": 20.59246233117362, "alt_km": 35811.1066694158, "timestamp": "2025-12-04T09:47:37.763891+00:00", "meta": {"OBJECT_NAME": "BEIDOU-2 G4 (C04)", "OBJECT_ID": "2010-057A", "EPOCH": "2025-12-03T19:39:12.350880", "MEAN_MOTION": 1.00271301, "ECCENTRICITY": 0.00109186, "INCLINATION": 3.1609, "RA_OF_ASC_NODE": 69.9592, "ARG_OF_PERICENTER": 188.5421, "MEAN_ANOMALY": 269.2731, "EPHEMERIS_TYPE": 0, "CLASSIFICATION_TYPE": "U", "NORAD_CAT_ID": 37210, "ELEMENT_SET_NO": 999, "REV_AT_EPOCH": 5533, "BSTAR": 0, "MEAN_MOTION_DOT": -9.6e-07, "MEAN_MOTION_DDOT": 0}, "tle": {"line1": "1 37210U 10057A   25337.81889295 -.00000096  00000+0  00000+0 0  9990", "line2": "2 37210   3.1609  69.9592 0010918 188.5421 269.2731  1.00271301 55333"}}, "geometry": {"type": "Point", "coordinates": [20.59246233117362, -2.380084692104664]}}, {"type": "Feature", "properties": {"norad_id": 37256, "name": "BEIDOU-2 IGSO-2 (C07)", "group": "gnss", "lat": 36.485886335667864, "lon": -43.936200889110964, "alt_km": 35974.979876107274, "timestamp": "2025-12-04T09:47:37.763904+00:00", "meta": {"OBJECT_NAME": "BEIDOU-2 IGSO-2 (C07)", "OBJECT_ID": "2010-068A", "EPOCH": "2025-12-03T17:22:36.030432", "MEAN_MOTION": 1.0028871, "ECCENTRICITY": 0.00492335, "INCLINATION": 47.9043, "RA_OF_ASC_NODE": 274.2613, "ARG_OF_PERICENTER": 216.1442, "MEAN_ANOMALY": 310.2369, "EPHEMERIS_TYPE": 0, "CLASSIFICATION_TYPE": "U", "NORAD_CAT_ID": 37256, "ELEMENT_SET_NO": 999, "REV_AT_EPOCH": 5483, "BSTAR": 0, "MEAN_MOTION_DOT": -2.25e-06, "MEAN_MOTION_DDOT": 0}, "tle": {"line1": "1 37256U 10068A   25337.72402813 -.00000225  00000+0  00000+0 0  9993", "line2": "2 37256  47.9043 274.2613 0049233 216.1442 310.2369  1.00288710 54839"}}, "geometry": {"type": "Point", "coordinates": [-43.936200889110964, 36.485886335667864]}}, {"type": "Feature", "properties": {"norad_id": 37384, "name": "BEIDOU-2 IGSO-3 (C08)", "group": "gnss", "lat": -58.017987309273316, "lon": -15.703256291082058, "alt_km": 35817.402138135214, "timestamp": "2025-12-04T09:47:37.763917+00:00", "meta": {"OBJECT_NAME": "BEIDOU-2 IGSO-3 (C08)", "OBJECT_ID": "2011-013A", "EPOCH": "2025-12-03T14:52:09.520896", "MEAN_MOTION": 1.00272128, "ECCENTRICITY": 0.00353922, "INCLINATION": 62.1308, "RA_OF_ASC_NODE": 42.005, "ARG_OF_PERICENTER": 186.5359, "MEAN_ANOMALY": 174.9093, "EPHEMERIS_TYPE": 0, "CLASSIFICATION_TYPE": "U", "NORAD_CAT_ID": 37384, "ELEMENT_SET_NO": 999, "REV_AT_EPOCH": 5370, "BSTAR": 0, "MEAN_MOTION_DOT": -1.99e-06, "MEAN_MOTION_DDOT": 0}, "tle": {"line1": "1 37384U 11013A   25337.61955464 -.00000199  00000+0  00000+0 0  9999", "line2": "2 37384  62.1308  42.0050 0035392 186.5359 174.9093  1.00272128 53708"}}, "geometry": {"type": "Point", "coordinates": [-15.703256291082058, -58.017987309273316]}}, {"type": "Feature", "properties": {"norad_id": 37605, "name": "GSAT-8 (GAGAN/PRN 127)", "group": "gnss", "lat": -0.3369413205839194, "lon": -84.52118044401995, "alt_km": 35748.516834406335, "timestamp": "2025-12-04T09:47:37.763930+00:00", "meta": {"OBJECT_NAME": "GSAT-8 (GAGAN/PRN 127)", "OBJECT_ID": "2011-022A", "EPOCH": "2025-12-04T00:17:25.076256", "MEAN_MOTION": 1.00272909, "ECCENTRICITY": 0.0009051, "INCLINATION": 1.6254, "RA_OF_ASC_NODE": 84.2863, "ARG_OF_PERICENTER": 177.5831, "MEAN_ANOMALY": 230.6628, "EPHEMERIS_TYPE": 0, "CLASSIFICATION_TYPE": "U", "NORAD_CAT_ID": 37605, "ELEMENT_SET_NO": 999, "REV_AT_EPOCH": 5126, "BSTAR": 0, "MEAN_MOTION_DOT": 1e-06, "MEAN_MOTION_DDOT": 0}, "tle": {"line1": "1 37605U 11022A   25338.01209579  .00000100  00000+0  00000+0 0  9990", "line2": "2 37605   1.6254  84.2863 0009051 177.5831 230.6628  1.00272909 51260"}}, "geometry": {"type": "Point", "coordinates": [-84.52118044401995, -0.3369413205839194]}}, {"type": "Feature", "properties": {"norad_id": 37763, "name": "BEIDOU-2 IGSO-4 (C09)", "group": "gnss", "lat": 27.582968888861444, "lon": -34.442333787480344, "alt_km": 35715.65096338145, "timestamp": "2025-12-04T09:47:37.763943+00:00", "meta": {"OBJECT_NAME": "BEIDOU-2 IGSO-4 (C09)", "OBJECT_ID": "2011-038A", "EPOCH": "2025-12-01T12:32:09.960864", "MEAN_MOTION": 1.00284074, "ECCENTRICITY": 0.01487808, "INCLINATION": 54.5808, "RA_OF_ASC_NODE": 167.4476, "ARG_OF_PERICENTER": 230.2031, "MEAN_ANOMALY": 315.0387, "EPHEMERIS_TYPE": 0, "CLASSIFICATION_TYPE": "U", "NORAD_CAT_ID": 37763, "ELEMENT_SET_NO": 999, "REV_AT_EPOCH": 5266, "BSTAR": 0, "MEAN_MOTION_DOT": 1.01e-06, "MEAN_MOTION_DDOT": 0}, "tle": {"line1": "1 37763U 11038A   25335.52233751  .00000101  00000+0  00000+0 0  9995", "line2": "2 37763  54.5808 167.4476 0148780 230.2031 315.0387  1.00284074 52664"}}, "geometry": {"type": "Point", "coordinates": [-34.442333787480344, 27.582968888861444]}}, {"type": "Feature", "properties": {"norad_id": 37846, "name": "GSAT0101 (GALILEO-PFM)", "group": "gnss", "lat": -6.504449830162517, "lon": 171.2921978173478, "alt_km": 23227.574086056127, "timestamp": "2025-12-04T09:47:37.763956+00:00", "meta": {"OBJECT_NAME": "GSAT0101 (GALILEO-PFM)", "OBJECT_ID": "2011-060A", "EPOCH": "2025-12-03T12:22:23.898432", "MEAN_MOTION": 1.70475497, "ECCENTRICITY": 0.00027974, "INCLINATION": 57.0548, "RA_OF_ASC_NODE": 347.0705, "ARG_OF_PERICENTER": 310.1579, "MEAN_ANOMALY": 49.8533, "EPHEMERIS_TYPE": 0, "CLASSIFICATION_TYPE": "U", "NORAD_CAT_ID": 37846, "ELEMENT_SET_NO": 999, "REV_AT_EPOCH": 8778, "BSTAR": 0, "MEAN_MOTION_DOT": -6.8e-07, "MEAN_MOTION_DDOT": 0}, "tle": {"line1": "1 37846U 11060A   25337.51555438 -.00000068  00000+0  00000+0 0  9995", "line2": "2 37846  57.0548 347.0705 0002797 310.1579  49.8533  1.70475497 87782"}}, "geometry": {"type": "Point", "coordinates": [171.2921978173478, -6.504449830162517]}}, {"type": "Feature", "properties": {"norad_id": 37847, "name": "GSAT0102 (GALILEO-FM2)", "group": "gnss", "lat": -42.19617911552327, "lon": -156.93033052876424, "alt_km": 23222.819653151615, "timestamp": "2025-12-04T09:47:37.763968+00:00", "meta": {"OBJECT_NAME": "GSAT0102 (GALILEO-FM2)", "OBJECT_ID": "2011-060B", "EPOCH": "2025-12-02T06:27:38.704608", "MEAN_MOTION": 1.70475743, "ECCENTRICITY": 0.00047518, "INCLINATION": 57.0559, "RA_OF_ASC_NODE": 347.1049, "ARG_OF_PERICENTER": 306.1199, "MEAN_ANOMALY": 54.4344, "EPHEMERIS_TYPE": 0, "CLASSIFICATION_TYPE": "U", "NORAD_CAT_ID": 37847, "ELEMENT_SET_NO": 999, "REV_AT_EPOCH": 8777, "BSTAR": 0, "MEAN_MOTION_DOT": -6.2e-07, "MEAN_MOTION_DDOT": 0}, "tle": {"line1": "1 37847U 11060B   25336.26919797 -.00000062  00000+0  00000+0 0  9993", "line2": "2 37847  57.0559 347.1049 0004751 306.1199  54.4344  1.70475743 87777"}}, "geometry": {"type": "Point", "coordinates": [-156.93033052876424, -42.19617911552327]}}]}